{
    "links": {
        "self": "http://www.neowsapp.com/rest/v1/neo/3825436?api_key=iIulBulltgU6a56xZRHN4H3l9WmuAYTsLGpBGhQ2"
    },
    "id": "3825436",
    "neo_reference_id": "3825436",
    "name": "(2018 MJ5)",
    "designation": "2018 MJ5",
    "nasa_jpl_url": "http://ssd.jpl.nasa.gov/sbdb.cgi?sstr=3825436",
    "absolute_magnitude_h": 26.8,
    "estimated_diameter": {
        "kilometers": {
            "estimated_diameter_min": 0.0116025908,
            "estimated_diameter_max": 0.0259441818
        },
        "meters": {
            "estimated_diameter_min": 11.6025908209,
            "estimated_diameter_max": 25.9441817907
        },
        "miles": {
            "estimated_diameter_min": 0.0072095135,
            "estimated_diameter_max": 0.0161209622
        },
        "feet": {
            "estimated_diameter_min": 38.066244069,
            "estimated_diameter_max": 85.1187093863
        }
    },
    "is_potentially_hazardous_asteroid": false,
    "close_approach_data": [
        {
            "close_approach_date": "2018-06-21",
            "close_approach_date_full": "2018-Jun-21 16:18",
            "epoch_date_close_approach": 1529597880000,
            "relative_velocity": {
                "kilometers_per_second": "8.161368626",
                "kilometers_per_hour": "29380.9270535734",
                "miles_per_hour": "18256.1654794829"
            },
            "miss_distance": {
                "astronomical": "0.0299667452",
                "lunar": "11.6570638828",
                "kilometers": "4482961.252752724",
                "miles": "2785582.9532626312"
            },
            "orbiting_body": "Earth"
        }
    ],
    "orbital_data": {
        "orbit_id": "3",
        "orbit_determination_date": "2018-06-22 06:31:39",
        "first_observation_date": "2018-06-18",
        "last_observation_date": "2018-06-22",
        "data_arc_in_days": 4,
        "observations_used": 20,
        "orbit_uncertainty": "8",
        "minimum_orbit_intersection": ".0298193",
        "jupiter_tisserand_invariant": "3.622",
        "epoch_osculation": "2458288.5",
        "eccentricity": ".4980029158137191",
        "semi_major_axis": "2.045468138115138",
        "inclination": "7.48042427438211",
        "ascending_node_longitude": "261.6214574815836",
        "orbital_period": "1068.531932404549",
        "perihelion_distance": "1.02681904112974",
        "perihelion_argument": "23.60494990248845",
        "aphelion_distance": "3.064117235100535",
        "perihelion_time": "2458304.475333782382",
        "mean_anomaly": "354.6177367402436",
        "mean_motion": ".336910848503967",
        "equinox": "J2000",
        "orbit_class": {
            "orbit_class_type": "AMO",
            "orbit_class_description": "Near-Earth asteroid orbits similar to that of 1221 Amor",
            "orbit_class_range": "1.017 AU < q (perihelion) < 1.3 AU"
        }
    },
    "is_sentry_object": false
}